CCSDS_OMM_VERS = 2.0
CREATION_DATE  = 
ORIGINATOR     = 

OBJECT_NAME    = 2026-027E
OBJECT_ID      = 2026-027E
CENTER_NAME    = EARTH
REF_FRAME      = TEME
TIME_SYSTEM    = UTC
MEAN_ELEMENT_THEORY = SGP/SGP4

EPOCH          = 2026-02-15T03:37:08.888448
MEAN_MOTION    = 15.17659944
ECCENTRICITY   = .0008743
INCLINATION    = 97.4885
RA_OF_ASC_NODE = 175.4162
ARG_OF_PERICENTER = 291.8104
MEAN_ANOMALY   = 68.2199

EPHEMERIS_TYPE = 0
CLASSIFICATION_TYPE = U
NORAD_CAT_ID   = 67750
ELEMENT_SET_NO = 999
REV_AT_EPOCH   = 44
BSTAR          = .36825E-3
MEAN_MOTION_DOT = .7356E-4
MEAN_MOTION_DDOT = 0

CCSDS_OMM_VERS = 2.0
CREATION_DATE  = 
ORIGINATOR     = 

OBJECT_NAME    = 2026-027F
OBJECT_ID      = 2026-027F
CENTER_NAME    = EARTH
REF_FRAME      = TEME
TIME_SYSTEM    = UTC
MEAN_ELEMENT_THEORY = SGP/SGP4

EPOCH          = 2026-02-15T03:37:02.416224
MEAN_MOTION    = 15.17714693
ECCENTRICITY   = .0009809
INCLINATION    = 97.4888
RA_OF_ASC_NODE = 175.4165
ARG_OF_PERICENTER = 289.9706
MEAN_ANOMALY   = 70.0471

EPHEMERIS_TYPE = 0
CLASSIFICATION_TYPE = U
NORAD_CAT_ID   = 67751
ELEMENT_SET_NO = 999
REV_AT_EPOCH   = 44
BSTAR          = .67106E-3
MEAN_MOTION_DOT = .13496E-3
MEAN_MOTION_DDOT = 0

CCSDS_OMM_VERS = 2.0
CREATION_DATE  = 
ORIGINATOR     = 

OBJECT_NAME    = 2026-027G
OBJECT_ID      = 2026-027G
CENTER_NAME    = EARTH
REF_FRAME      = TEME
TIME_SYSTEM    = UTC
MEAN_ELEMENT_THEORY = SGP/SGP4

EPOCH          = 2026-02-15T03:36:55.532736
MEAN_MOTION    = 15.17743767
ECCENTRICITY   = .0009069
INCLINATION    = 97.4881
RA_OF_ASC_NODE = 175.4162
ARG_OF_PERICENTER = 293.3742
MEAN_ANOMALY   = 66.6537

EPHEMERIS_TYPE = 0
CLASSIFICATION_TYPE = U
NORAD_CAT_ID   = 67752
ELEMENT_SET_NO = 999
REV_AT_EPOCH   = 44
BSTAR          = .42263E-3
MEAN_MOTION_DOT = .8474E-4
MEAN_MOTION_DDOT = 0

CCSDS_OMM_VERS = 2.0
CREATION_DATE  = 
ORIGINATOR     = 

OBJECT_NAME    = 2026-027H
OBJECT_ID      = 2026-027H
CENTER_NAME    = EARTH
REF_FRAME      = TEME
TIME_SYSTEM    = UTC
MEAN_ELEMENT_THEORY = SGP/SGP4

EPOCH          = 2026-02-15T03:26:14.792928
MEAN_MOTION    = 15.57442634
ECCENTRICITY   = .0276102
INCLINATION    = 97.5141
RA_OF_ASC_NODE = 175.6119
ARG_OF_PERICENTER = 329.1073
MEAN_ANOMALY   = 29.4181

EPHEMERIS_TYPE = 0
CLASSIFICATION_TYPE = U
NORAD_CAT_ID   = 67753
ELEMENT_SET_NO = 999
REV_AT_EPOCH   = 45
BSTAR          = .77648E-3
MEAN_MOTION_DOT = .393616E-2
MEAN_MOTION_DDOT = .22771E-5

CCSDS_OMM_VERS = 2.0
CREATION_DATE  = 
ORIGINATOR     = 

OBJECT_NAME    = 2026-027J
OBJECT_ID      = 2026-027J
CENTER_NAME    = EARTH
REF_FRAME      = TEME
TIME_SYSTEM    = UTC
MEAN_ELEMENT_THEORY = SGP/SGP4

EPOCH          = 2026-02-15T03:23:13.107552
MEAN_MOTION    = 15.59716922
ECCENTRICITY   = .0266699
INCLINATION    = 97.5129
RA_OF_ASC_NODE = 175.6167
ARG_OF_PERICENTER = 328.8925
MEAN_ANOMALY   = 29.6769

EPHEMERIS_TYPE = 0
CLASSIFICATION_TYPE = U
NORAD_CAT_ID   = 67754
ELEMENT_SET_NO = 999
REV_AT_EPOCH   = 39
BSTAR          = .15128E-2
MEAN_MOTION_DOT = .783435E-2
MEAN_MOTION_DDOT = .23089E-5

CCSDS_OMM_VERS = 2.0
CREATION_DATE  = 
ORIGINATOR     = 

OBJECT_NAME    = CREW DRAGON 12
OBJECT_ID      = 2026-031A
CENTER_NAME    = EARTH
REF_FRAME      = TEME
TIME_SYSTEM    = UTC
MEAN_ELEMENT_THEORY = SGP/SGP4

EPOCH          = 2026-02-13T14:39:05.346720
MEAN_MOTION    = 16.18051748
ECCENTRICITY   = .0025866
INCLINATION    = 51.6318
RA_OF_ASC_NODE = 191.8838
ARG_OF_PERICENTER = 226.1048
MEAN_ANOMALY   = 133.7834

EPHEMERIS_TYPE = 0
CLASSIFICATION_TYPE = U
NORAD_CAT_ID   = 67796
ELEMENT_SET_NO = 999
REV_AT_EPOCH   = 3
BSTAR          = .25516E-3
MEAN_MOTION_DOT = .465694E-2
MEAN_MOTION_DDOT = .11779E-4

