2026-027E               
1 67750U 26027E   26046.15079732  .00007356  00000+0  36825-3 0  9991
2 67750  97.4885 175.4162 0008743 291.8104  68.2199 15.17659944   445
2026-027F               
1 67751U 26027F   26046.15072241  .00013496  00000+0  67106-3 0  9998
2 67751  97.4888 175.4165 0009809 289.9706  70.0471 15.17714693   449
2026-027G               
1 67752U 26027G   26046.15064274  .00008474  00000+0  42263-3 0  9993
2 67752  97.4881 175.4162 0009069 293.3742  66.6537 15.17743767   445
2026-027H               
1 67753U 26027H   26046.14322677  .00393616  22771-5  77648-3 0  9992
2 67753  97.5141 175.6119 0276102 329.1073  29.4181 15.57442634   455
2026-027J               
1 67754U 26027J   26046.14112393  .00783435  23089-5  15128-2 0  9994
2 67754  97.5129 175.6167 0266699 328.8925  29.6769 15.59716922   390
CREW DRAGON 12          
1 67796U 26031A   26044.61047855  .00465694  11779-4  25516-3 0  9994
2 67796  51.6318 191.8838 0025866 226.1048 133.7834 16.18051748    32
